satname,norad_id,inclination_deg,eccentricity,mean_motion_rev_per_day,perigee_km,apogee_km,l1,l2
STARLINK-1480,45741,53.0546,0.0001496,15.06412983,546.1357410073806,548.2077933905275,1 45741U 20038M   25310.68947274  .00005885  00000+0  41350-3 0  9993,2 45741  53.0546  68.7868 0001496  79.5820 280.5337 15.06412983297667
STARLINK-1500,45744,53.043,0.0001602,15.27841306,481.16772670809223,483.3658000738833,1 45744U 20038Q   25310.64841066  .00028225  00000+0  10333-2 0  9993,2 45744  53.0430  46.8385 0001602 214.1634 145.9262 15.27841306297964
STARLINK-1504,45746,53.0292,0.0001646,15.407093,442.8917680814011,445.1376204191474,1 45746U 20038S   25310.47404966  .00027171  00000+0  66264-3 0  9994,2 45746  53.0292  11.6927 0001646 262.1925  97.8892 15.40709300298437
STARLINK-1506,45747,53.0623,0.0001517,15.21589148,500.0031218388749,502.09026617163636,1 45747U 20038T   25310.62995440  .00029223  00000+0  12883-2 0  9991,2 45747  53.0623  49.7090 0001517 220.6526 139.4357 15.21589148297929
STARLINK-1464,45751,53.0555,0.0001676,15.06427177,545.9675911411996,548.288940058229,1 45751U 20038X   25310.69132041  .00009614  00000+0  66296-3 0  9993,2 45751  53.0555  48.7776 0001676 101.8494 258.2683 15.06427177297948
STARLINK-1477,45754,53.0548,0.0001715,15.07108461,543.8537525965339,546.228402677164,1 45754U 20038AA  25310.63757707  .00045162  00000+0  29740-2 0  9992,2 45754  53.0548  48.9951 0001715  23.4532 336.6536 15.07108461297936
STARLINK-1478,45755,53.0545,0.0002473,15.06337096,545.6916699700678,549.1170427249181,1 45755U 20038AB  25310.65819487  .00038936  00000+0  26228-2 0  9998,2 45755  53.0545  48.9274 0002473 116.0539 244.0705 15.06337096297926
STARLINK-1484,45756,53.0161,0.0002806,15.6189764,380.2789230221706,384.07281060302466,1 45756U 20038AC  25310.91668980  .00191998  00000+0  21227-2 0  9990,2 45756  53.0161 310.8953 0002806  28.5752 304.0803 15.61897640  5896
STARLINK-1493,45759,53.0549,0.0001321,15.0638679,546.3372010887151,548.1668888743989,1 45759U 20038AF  25310.64710781 -.00001639  00000+0 -91197-4 0  9999,2 45759  53.0549  48.9762 0001321  91.6801 268.4340 15.06386790297927
STARLINK-1494,45760,53.0556,0.0003138,15.51832034,409.2466285779501,413.50772767614217,1 45760U 20038AG  25310.59118551  .00049432  00000+0  81491-3 0  9998,2 45760  53.0556  32.3820 0003138  29.1852 330.9332 15.51832034298169
STARLINK-1502,45764,53.0556,0.0001409,15.06418683,546.1785242820624,548.1300713697901,1 45764U 20038AL  25310.68026154  .00003768  00000+0  27155-3 0  9998,2 45764  53.0556  48.8245 0001409  92.1323 267.9827 15.06418683297941
STARLINK-1470,45772,53.0532,0.0003004,15.18109701,509.4842298478052,513.6235561363137,1 45772U 20038AU  25310.48944389  .00031359  00000+0  15274-2 0  9999,2 45772  53.0532  21.6696 0003004 279.4027  80.6627 15.18109701298307
STARLINK-1482,45773,53.0552,0.0001192,15.06448451,546.2375827335509,547.888550429424,1 45773U 20038AV  25310.64524515  .00021621  00000+0  14641-2 0  9991,2 45773  53.0552  28.9856 0001192  74.3852 285.7269 15.06448451298217
STARLINK-1496,45780,53.0558,0.000144,15.06416961,546.1623326969893,548.1568181107059,1 45780U 20038BC  25310.47938630  .00019315  00000+0  13115-2 0  9999,2 45780  53.0558  29.7308 0001440 100.0537 260.0614 15.06416961298171
STARLINK-1497,45781,53.0393,0.000637,15.55896697,395.2299089046792,403.8646786949794,1 45781U 20038BD  25310.91668980  .00221172  00000+0  30539-2 0  9992,2 45781  53.0393 330.9088 0006370 323.8407 345.1147 15.55896697  5971
STARLINK-1510,45784,53.0314,0.0003132,15.72369664,350.0186218511344,354.23445893283497,1 45784U 20038BG  25310.91668980  .00304534  00000+0  21713-2 0  9993,2 45784  53.0314 306.3532 0003132  70.5081 124.2810 15.72369664  6012
STARLINK-1513,45786,53.0562,0.0001374,15.06402628,546.2519617233065,548.1550452936708,1 45786U 20038BJ  25310.57521890  .00000638  00000+0  61723-4 0  9990,2 45786  53.0562  29.3018 0001374  92.2688 267.8458 15.06402628298201
STARLINK-1522,46027,53.0549,0.0001518,15.06403257,546.1503093245638,548.2528421161524,1 46027U 20055A   25310.29048330  .00005077  00000+0  35943-3 0  9996,2 46027  53.0549 320.5799 0001518  97.5011 262.6150 15.06403257290286
STARLINK-1523,46028,53.0551,0.000146,15.06409658,546.1708611496042,548.1930542852579,1 46028U 20055B   25310.30522405  .00000852  00000+0  76052-4 0  9992,2 46028  53.0551 320.5134 0001460  97.7450 262.3705 15.06409658290305
STARLINK-1526,46029,53.055,0.0001462,15.06407543,546.1759572468318,548.2009224054382,1 46029U 20055C   25310.29785481  .00002122  00000+0  16126-3 0  9993,2 46029  53.0550 320.5429 0001462  91.5835 268.5321 15.06407543290294
STARLINK-1555,46032,53.0543,0.0001324,15.06405748,546.2770273855422,548.1108550187728,1 46032U 20055F   25310.34945911  .00010044  00000+0  69213-3 0  9996,2 46032  53.0543 320.3129 0001324  99.9623 260.1515 15.06405748290309
STARLINK-1556,46033,53.0548,0.0001429,15.0640358,546.2109550346149,548.1902165166293,1 46033U 20055G   25310.33102838  .00004332  00000+0  30948-3 0  9995,2 46033  53.0548 320.3975 0001429  99.0993 261.0157 15.06403580290271
STARLINK-1557,46034,53.0555,0.0001455,15.06414928,546.158174587832,548.1734377044204,1 46034U 20055H   25310.46739244  .00005226  00000+0  36931-3 0  9998,2 46034  53.0555 319.7838 0001455 103.9654 256.1497 15.06414928290290
STARLINK-1558,46035,53.0546,0.0001355,15.06400924,546.270341666931,548.147110358681,1 46035U 20055J   25310.34209412  .00007752  00000+0  53875-3 0  9997,2 46035  53.0546 320.3479 0001355  97.1023 263.0120 15.06400924290306
STARLINK-1560,46036,53.0547,0.0001419,15.06397845,546.2354548131852,548.2008706083625,1 46036U 20055K   25310.32735394  .00004641  00000+0  33028-3 0  9991,2 46036  53.0547 320.4171 0001419  97.1532 262.9618 15.06397845290301
STARLINK-1567,46038,53.0555,0.0001553,15.0640461,546.1219245514485,548.2729334250926,1 46038U 20055M   25310.33840130  .00007801  00000+0  54196-3 0  9999,2 46038  53.0555 320.3647 0001553 102.1397 257.9766 15.06404610290299
STARLINK-1569,46039,53.056,0.0001789,15.0640323,545.9627153851716,548.4406015571731,1 46039U 20055N   25310.34577147  .00001780  00000+0  13839-3 0  9995,2 46039  53.0560 320.3330 0001789  96.8843 263.2349 15.06403230290295
STARLINK-1582,46043,53.0538,0.0001418,15.06403281,546.2194891644731,548.1835151636869,1 46043U 20055S   25310.35314608  .00008431  00000+0  58415-3 0  9991,2 46043  53.0538 320.3010 0001418 102.0130 258.1018 15.06403281290290
